{
  "type": "FeatureCollection",
  "features": [
    {
      "type": "Feature",
      "properties": {
        "norad_id": 30527,
        "name": "FENGYUN 1C DEB",
        "group": "fengyun-1c-debris",
        "lat": 24.82370418698172,
        "lon": 40.170646501455614,
        "alt_km": 1442.1929162942997,
        "timestamp": "2025-12-27T19:21:59.026712+00:00",
        "meta_object_name": "FENGYUN 1C DEB",
        "meta_object_id": "1999-025AJR",
        "meta_epoch": "2025-12-27T01:21:12.451968",
        "meta_mean_motion": 13.31064901,
        "meta_eccentricity": 0.04136702,
        "meta_inclination": 100.0627,
        "meta_ra_of_asc_node": 44.1464,
        "meta_arg_of_pericenter": 192.5785,
        "meta_mean_anomaly": 199.3072,
        "meta_ephemeris_type": 0,
        "meta_classification_type": "U",
        "meta_norad_cat_id": 30527,
        "meta_element_set_no": 999,
        "meta_rev_at_epoch": 91547,
        "meta_bstar": 0.0015074414,
        "meta_mean_motion_dot": 1.107e-05,
        "meta_mean_motion_ddot": 0,
        "tle_line1": "1 30527U 99025AJR 25361.05639412  .00001107  00000+0  15074-2 0  9996",
        "tle_line2": "2 30527 100.0627  44.1464 0413670 192.5785 199.3072 13.31064901915471"
      },
      "geometry": {
        "type": "Point",
        "coordinates": [
          40.170646501455614,
          24.82370418698172
        ]
      }
    },
    {
      "type": "Feature",
      "properties": {
        "norad_id": 30528,
        "name": "FENGYUN 1C DEB",
        "group": "fengyun-1c-debris",
        "lat": 14.574824805914988,
        "lon": 52.386933174311636,
        "alt_km": 748.5295566804361,
        "timestamp": "2025-12-27T19:21:59.026724+00:00",
        "meta_object_name": "FENGYUN 1C DEB",
        "meta_object_id": "1999-025AJS",
        "meta_epoch": "2025-12-26T21:07:02.335296",
        "meta_mean_motion": 14.13513395,
        "meta_eccentricity": 0.0144096,
        "meta_inclination": 98.237,
        "meta_ra_of_asc_node": 229.3742,
        "meta_arg_of_pericenter": 184.8879,
        "meta_mean_anomaly": 306.0198,
        "meta_ephemeris_type": 0,
        "meta_classification_type": "U",
        "meta_norad_cat_id": 30528,
        "meta_element_set_no": 999,
        "meta_rev_at_epoch": 97337,
        "meta_bstar": 0.00036166,
        "meta_mean_motion_dot": 7.13e-06,
        "meta_mean_motion_ddot": 0,
        "tle_line1": "1 30528U 99025AJS 25360.87988814  .00000713  00000+0  36166-3 0  9997",
        "tle_line2": "2 30528  98.2370 229.3742 0144096 184.8879 306.0198 14.13513395973378"
      },
      "geometry": {
        "type": "Point",
        "coordinates": [
          52.386933174311636,
          14.574824805914988
        ]
      }
    },
    {
      "type": "Feature",
      "properties": {
        "norad_id": 30529,
        "name": "FENGYUN 1C DEB",
        "group": "fengyun-1c-debris",
        "lat": -74.12833508725862,
        "lon": -46.363379516225834,
        "alt_km": 1032.149705544075,
        "timestamp": "2025-12-27T19:21:59.026733+00:00",
        "meta_object_name": "FENGYUN 1C DEB",
        "meta_object_id": "1999-025AJT",
        "meta_epoch": "2025-12-27T07:29:46.061952",
        "meta_mean_motion": 13.71630459,
        "meta_eccentricity": 0.0229761,
        "meta_inclination": 98.4871,
        "meta_ra_of_asc_node": 281.5204,
        "meta_arg_of_pericenter": 182.929,
        "meta_mean_anomaly": 177.0529,
        "meta_ephemeris_type": 0,
        "meta_classification_type": "U",
        "meta_norad_cat_id": 30529,
        "meta_element_set_no": 999,
        "meta_rev_at_epoch": 94208,
        "meta_bstar": 0.00084513,
        "meta_mean_motion_dot": 8.84e-06,
        "meta_mean_motion_ddot": 0,
        "tle_line1": "1 30529U 99025AJT 25361.31233868  .00000884  00000+0  84513-3 0  9998",
        "tle_line2": "2 30529  98.4871 281.5204 0229761 182.9290 177.0529 13.71630459942081"
      },
      "geometry": {
        "type": "Point",
        "coordinates": [
          -46.363379516225834,
          -74.12833508725862
        ]
      }
    },
    {
      "type": "Feature",
      "properties": {
        "norad_id": 30530,
        "name": "FENGYUN 1C DEB",
        "group": "fengyun-1c-debris",
        "lat": -7.088625875644733,
        "lon": -141.24605025394533,
        "alt_km": 778.2251460665175,
        "timestamp": "2025-12-27T19:21:59.026742+00:00",
        "meta_object_name": "FENGYUN 1C DEB",
        "meta_object_id": "1999-025AJU",
        "meta_epoch": "2025-12-27T02:02:52.963872",
        "meta_mean_motion": 14.36804694,
        "meta_eccentricity": 0.01004371,
        "meta_inclination": 98.3949,
        "meta_ra_of_asc_node": 39.1024,
        "meta_arg_of_pericenter": 94.3713,
        "meta_mean_anomaly": 321.2194,
        "meta_ephemeris_type": 0,
        "meta_classification_type": "U",
        "meta_norad_cat_id": 30530,
        "meta_element_set_no": 999,
        "meta_rev_at_epoch": 98991,
        "meta_bstar": 0.00025913413,
        "meta_mean_motion_dot": 7.67e-06,
        "meta_mean_motion_ddot": 0,
        "tle_line1": "1 30530U 99025AJU 25361.08533523  .00000767  00000+0  25913-3 0  9994",
        "tle_line2": "2 30530  98.3949  39.1024 0100437  94.3713 321.2194 14.36804694989919"
      },
      "geometry": {
        "type": "Point",
        "coordinates": [
          -141.24605025394533,
          -7.088625875644733
        ]
      }
    },
    {
      "type": "Feature",
      "properties": {
        "norad_id": 30531,
        "name": "FENGYUN 1C DEB",
        "group": "fengyun-1c-debris",
        "lat": 15.302948480334836,
        "lon": 18.684097012630257,
        "alt_km": 667.3665312847825,
        "timestamp": "2025-12-27T19:21:59.026752+00:00",
        "meta_object_name": "FENGYUN 1C DEB",
        "meta_object_id": "1999-025AJV",
        "meta_epoch": "2025-12-27T12:03:02.956320",
        "meta_mean_motion": 14.62482371,
        "meta_eccentricity": 0.0026046,
        "meta_inclination": 102.3108,
        "meta_ra_of_asc_node": 194.806,
        "meta_arg_of_pericenter": 165.1867,
        "meta_mean_anomaly": 195.0087,
        "meta_ephemeris_type": 0,
        "meta_classification_type": "U",
        "meta_norad_cat_id": 30531,
        "meta_element_set_no": 999,
        "meta_rev_at_epoch": 97911,
        "meta_bstar": 0.0045617,
        "meta_mean_motion_dot": 0.00023231,
        "meta_mean_motion_ddot": 0,
        "tle_line1": "1 30531U 99025AJV 25361.50211755  .00023231  00000+0  45617-2 0  9995",
        "tle_line2": "2 30531 102.3108 194.8060 0026046 165.1867 195.0087 14.62482371979114"
      },
      "geometry": {
        "type": "Point",
        "coordinates": [
          18.684097012630257,
          15.302948480334836
        ]
      }
    },
    {
      "type": "Feature",
      "properties": {
        "norad_id": 30532,
        "name": "FENGYUN 1C DEB",
        "group": "fengyun-1c-debris",
        "lat": 22.880245330702838,
        "lon": 43.15745431030636,
        "alt_km": 466.80852996756585,
        "timestamp": "2025-12-27T19:21:59.026761+00:00",
        "meta_object_name": "FENGYUN 1C DEB",
        "meta_object_id": "1999-025AJW",
        "meta_epoch": "2025-12-27T08:19:37.147872",
        "meta_mean_motion": 15.36547868,
        "meta_eccentricity": 0.0017923,
        "meta_inclination": 96.9589,
        "meta_ra_of_asc_node": 45.6767,
        "meta_arg_of_pericenter": 208.1339,
        "meta_mean_anomaly": 151.894,
        "meta_ephemeris_type": 0,
        "meta_classification_type": "U",
        "meta_norad_cat_id": 30532,
        "meta_element_set_no": 999,
        "meta_rev_at_epoch": 97911,
        "meta_bstar": 0.014896,
        "meta_mean_motion_dot": 0.00574208,
        "meta_mean_motion_ddot": 0,
        "tle_line1": "1 30532U 99025AJW 25361.34695773  .00574208  00000+0  14896-1 0  9993",
        "tle_line2": "2 30532  96.9589  45.6767 0017923 208.1339 151.8940 15.36547868979112"
      },
      "geometry": {
        "type": "Point",
        "coordinates": [
          43.15745431030636,
          22.880245330702838
        ]
      }
    },
    {
      "type": "Feature",
      "properties": {
        "norad_id": 30533,
        "name": "FENGYUN 1C DEB",
        "group": "fengyun-1c-debris",
        "lat": 50.72856511231194,
        "lon": 120.48588063639,
        "alt_km": 671.8823036549566,
        "timestamp": "2025-12-27T19:21:59.026784+00:00",
        "meta_object_name": "FENGYUN 1C DEB",
        "meta_object_id": "1999-025AJX",
        "meta_epoch": "2025-12-27T07:51:04.597056",
        "meta_mean_motion": 14.54188122,
        "meta_eccentricity": 0.0080651,
        "meta_inclination": 98.8331,
        "meta_ra_of_asc_node": 130.943,
        "meta_arg_of_pericenter": 105.2428,
        "meta_mean_anomaly": 316.8024,
        "meta_ephemeris_type": 0,
        "meta_classification_type": "U",
        "meta_norad_cat_id": 30533,
        "meta_element_set_no": 999,
        "meta_rev_at_epoch": 98033,
        "meta_bstar": 0.0032345,
        "meta_mean_motion_dot": 0.00014269,
        "meta_mean_motion_ddot": 0,
        "tle_line1": "1 30533U 99025AJX 25361.32713654  .00014269  00000+0  32345-2 0  9997",
        "tle_line2": "2 30533  98.8331 130.9430 0080651 105.2428 316.8024 14.54188122980333"
      },
      "geometry": {
        "type": "Point",
        "coordinates": [
          120.48588063639,
          50.72856511231194
        ]
      }
    }
  ]
}